start=new Date('2022-11-26T00:00:00.000Z').valueOf();
sats=[{"REF_FRAME":"TEME","OBJECT_NAME":"STARLINK-3787","MEAN_MOTION_DDOT":"0.0000000000000","PERIOD":"95.437","MEAN_MOTION_DOT":"0.00001169","LAUNCH_DATE":"2022-04-21","TIME_SYSTEM":"UTC","REV_AT_EPOCH":"3321","RCS_SIZE":"LARGE","CENTER_NAME":"EARTH","EPOCH":"2022-11-25T17:45:26.924544","OBJECT_TYPE":"PAYLOAD","OBJECT_ID":"2022-041S","EPHEMERIS_TYPE":"0","SITE":"AFETR","CLASSIFICATION_TYPE":"U","ARG_OF_PERICENTER":"48.0748","MEAN_ELEMENT_THEORY":"SGP4","FILE":"3670141","BSTAR":"0.00009153900000","RA_OF_ASC_NODE":"95.9086","COUNTRY_CODE":"US","TLE_LINE1":"1 52277U 22041S   22329.73989496  .00001169  00000-0  91539-4 0  9993","TLE_LINE2":"2 52277  53.2194  95.9086 0001928  48.0748 312.0408 15.08842998 33218","ELEMENT_SET_NO":"999","APOAPSIS":"541.070","SEMIMAJOR_AXIS":"6917.871","PERIAPSIS":"538.402","ECCENTRICITY":"0.00019280","GP_ID":"218820920","DECAY_DATE":null,"MEAN_MOTION":"15.08842998","MEAN_ANOMALY":"312.0408","NORAD_CAT_ID":"52277","INCLINATION":"53.2194"},{"MEAN_ANOMALY":"315.4256","INCLINATION":"53.2194","NORAD_CAT_ID":"52278","MEAN_MOTION":"15.08839334","GP_ID":"218821170","DECAY_DATE":null,"PERIAPSIS":"538.659","ECCENTRICITY":"0.00015740","APOAPSIS":"540.836","SEMIMAJOR_AXIS":"6917.882","COUNTRY_CODE":"US","TLE_LINE1":"1 52278U 22041T   22329.72886234 -.00000208  00000-0  50158-5 0  9996","TLE_LINE2":"2 52278  53.2194  95.9629 0001574  44.6863 315.4256 15.08839334 33217","ELEMENT_SET_NO":"999","MEAN_ELEMENT_THEORY":"SGP4","FILE":"3670141","BSTAR":"0.00000501580000","RA_OF_ASC_NODE":"95.9629","OBJECT_ID":"2022-041T","SITE":"AFETR","EPHEMERIS_TYPE":"0","CLASSIFICATION_TYPE":"U","ARG_OF_PERICENTER":"44.6863","EPOCH":"2022-11-25T17:29:33.706176","OBJECT_TYPE":"PAYLOAD","CENTER_NAME":"EARTH","RCS_SIZE":"LARGE","TIME_SYSTEM":"UTC","REV_AT_EPOCH":"3321","PERIOD":"95.438","MEAN_MOTION_DOT":"-0.00000208","LAUNCH_DATE":"2022-04-21","REF_FRAME":"TEME","OBJECT_NAME":"STARLINK-3780","MEAN_MOTION_DDOT":"0.0000000000000"},{"TIME_SYSTEM":"UTC","REV_AT_EPOCH":"3322","RCS_SIZE":"LARGE","REF_FRAME":"TEME","OBJECT_NAME":"STARLINK-3686","MEAN_MOTION_DDOT":"0.0000000000000","PERIOD":"95.380","LAUNCH_DATE":"2022-04-21","MEAN_MOTION_DOT":"0.00010342","EPOCH":"2022-11-25T18:58:54.090048","OBJECT_TYPE":"PAYLOAD","OBJECT_ID":"2022-041U","SITE":"AFETR","EPHEMERIS_TYPE":"0","CLASSIFICATION_TYPE":"U","ARG_OF_PERICENTER":"102.4681","CENTER_NAME":"EARTH","APOAPSIS":"538.862","SEMIMAJOR_AXIS":"6915.093","MEAN_ELEMENT_THEORY":"SGP4","FILE":"3670141","BSTAR":"0.00065057000000","RA_OF_ASC_NODE":"95.5597","COUNTRY_CODE":"US","TLE_LINE2":"2 52279  53.2194  95.5597 0002752 102.4681 257.6620 15.09752227 33227","ELEMENT_SET_NO":"999","TLE_LINE1":"1 52279U 22041U   22329.79090382  .00010342  00000-0  65057-3 0  9996","MEAN_MOTION":"15.09752227","MEAN_ANOMALY":"257.6620","NORAD_CAT_ID":"52279","INCLINATION":"53.2194","PERIAPSIS":"535.055","ECCENTRICITY":"0.00027520","GP_ID":"218821914","DECAY_DATE":null},{"REF_FRAME":"TEME","MEAN_MOTION_DDOT":"0.0000000000000","OBJECT_NAME":"STARLINK-3764","PERIOD":"95.438","LAUNCH_DATE":"2022-04-21","MEAN_MOTION_DOT":"0.00000977","TIME_SYSTEM":"UTC","REV_AT_EPOCH":"3320","RCS_SIZE":"LARGE","CENTER_NAME":"EARTH","EPOCH":"2022-11-25T15:38:16.283904","OBJECT_TYPE":"PAYLOAD","OBJECT_ID":"2022-041V","SITE":"AFETR","EPHEMERIS_TYPE":"0","CLASSIFICATION_TYPE":"U","ARG_OF_PERICENTER":"47.3242","FILE":"3670141","MEAN_ELEMENT_THEORY":"SGP4","RA_OF_ASC_NODE":"96.3142","BSTAR":"0.00007950800000","COUNTRY_CODE":"US","ELEMENT_SET_NO":"999","TLE_LINE2":"2 52280  53.2168  96.3142 0001910  47.3242 312.7911 15.08839845 33205","TLE_LINE1":"1 52280U 22041V   22329.65157736  .00000977  00000-0  79508-4 0  9990","APOAPSIS":"541.067","SEMIMAJOR_AXIS":"6917.881","PERIAPSIS":"538.425","ECCENTRICITY":"0.00019100","GP_ID":"218822162","DECAY_DATE":null,"MEAN_MOTION":"15.08839845","MEAN_ANOMALY":"312.7911","NORAD_CAT_ID":"52280","INCLINATION":"53.2168"},{"COUNTRY_CODE":"US","TLE_LINE2":"2 52281  53.2199  95.9444 0002213  41.3606 318.7553 15.08859994 33211","ELEMENT_SET_NO":"999","TLE_LINE1":"1 52281U 22041W   22329.73348438 -.00001227  00000-0 -58963-4 0  9994","MEAN_ELEMENT_THEORY":"SGP4","FILE":"3670141","RA_OF_ASC_NODE":"95.9444","BSTAR":"-0.00005896300000","APOAPSIS":"541.215","SEMIMAJOR_AXIS":"6917.819","DECAY_DATE":null,"GP_ID":"218821420","PERIAPSIS":"538.153","ECCENTRICITY":"0.00022130","MEAN_ANOMALY":"318.7553","NORAD_CAT_ID":"52281","INCLINATION":"53.2199","MEAN_MOTION":"15.08859994","PERIOD":"95.436","LAUNCH_DATE":"2022-04-21","MEAN_MOTION_DOT":"-0.00001227","REF_FRAME":"TEME","OBJECT_NAME":"STARLINK-3779","MEAN_MOTION_DDOT":"0.0000000000000","RCS_SIZE":"LARGE","TIME_SYSTEM":"UTC","REV_AT_EPOCH":"3321","CENTER_NAME":"EARTH","EPHEMERIS_TYPE":"0","SITE":"AFETR","OBJECT_ID":"2022-041W","ARG_OF_PERICENTER":"41.3606","CLASSIFICATION_TYPE":"U","OBJECT_TYPE":"PAYLOAD","EPOCH":"2022-11-25T17:36:13.050432"},{"RCS_SIZE":"LARGE","TIME_SYSTEM":"UTC","REV_AT_EPOCH":"3333","PERIOD":"95.437","LAUNCH_DATE":"2022-04-21","MEAN_MOTION_DOT":"0.00000884","REF_FRAME":"TEME","OBJECT_NAME":"STARLINK-3783","MEAN_MOTION_DDOT":"0.0000000000000","SITE":"AFETR","EPHEMERIS_TYPE":"0","OBJECT_ID":"2022-041X","ARG_OF_PERICENTER":"41.8335","CLASSIFICATION_TYPE":"U","OBJECT_TYPE":"PAYLOAD","EPOCH":"2022-11-25T15:28:59.470464","CENTER_NAME":"EARTH","APOAPSIS":"541.398","SEMIMAJOR_AXIS":"6917.869","COUNTRY_CODE":"US","ELEMENT_SET_NO":"999","TLE_LINE2":"2 52282  53.2181  86.3193 0002405  41.8335 318.2841 15.08843639 33332","TLE_LINE1":"1 52282U 22041X   22329.64513276  .00000884  00000-0  73638-4 0  9991","FILE":"3670141","MEAN_ELEMENT_THEORY":"SGP4","BSTAR":"0.00007363800000","RA_OF_ASC_NODE":"86.3193","MEAN_ANOMALY":"318.2841","NORAD_CAT_ID":"52282","INCLINATION":"53.2181","MEAN_MOTION":"15.08843639","DECAY_DATE":null,"GP_ID":"218821670","PERIAPSIS":"538.071","ECCENTRICITY":"0.00024050"},{"TLE_LINE2":"2 52283  53.2185  96.2818 0001920  43.7937 316.3207 15.08833673 33209","ELEMENT_SET_NO":"999","TLE_LINE1":"1 52283U 22041Y   22329.65893895  .00000028  00000-0  19858-4 0  9995","COUNTRY_CODE":"US","BSTAR":"0.00001985800000","RA_OF_ASC_NODE":"96.2818","MEAN_ELEMENT_THEORY":"SGP4","FILE":"3670141","SEMIMAJOR_AXIS":"6917.900","APOAPSIS":"541.093","DECAY_DATE":null,"GP_ID":"218822413","ECCENTRICITY":"0.00019200","PERIAPSIS":"538.436","NORAD_CAT_ID":"52283","INCLINATION":"53.2185","MEAN_ANOMALY":"316.3207","MEAN_MOTION":"15.08833673","MEAN_MOTION_DOT":"0.00000028","LAUNCH_DATE":"2022-04-21","PERIOD":"95.438","MEAN_MOTION_DDOT":"0.0000000000000","OBJECT_NAME":"STARLINK-3789","REF_FRAME":"TEME","RCS_SIZE":"LARGE","REV_AT_EPOCH":"3320","TIME_SYSTEM":"UTC","CENTER_NAME":"EARTH","ARG_OF_PERICENTER":"43.7937","CLASSIFICATION_TYPE":"U","SITE":"AFETR","EPHEMERIS_TYPE":"0","OBJECT_ID":"2022-041Y","OBJECT_TYPE":"PAYLOAD","EPOCH":"2022-11-25T15:48:52.325280"},{"TIME_SYSTEM":"UTC","REV_AT_EPOCH":"3333","RCS_SIZE":"LARGE","REF_FRAME":"TEME","MEAN_MOTION_DDOT":"0.0000000000000","OBJECT_NAME":"STARLINK-3561","PERIOD":"95.438","LAUNCH_DATE":"2022-04-21","MEAN_MOTION_DOT":"0.00001117","OBJECT_TYPE":"PAYLOAD","EPOCH":"2022-11-25T15:18:24.038208","SITE":"AFETR","EPHEMERIS_TYPE":"0","OBJECT_ID":"2022-041Z","ARG_OF_PERICENTER":"37.1590","CLASSIFICATION_TYPE":"U","CENTER_NAME":"EARTH","APOAPSIS":"541.423","SEMIMAJOR_AXIS":"6917.888","MEAN_ELEMENT_THEORY":"SGP4","FILE":"3670141","RA_OF_ASC_NODE":"86.3533","BSTAR":"0.00008827200000","COUNTRY_CODE":"US","ELEMENT_SET_NO":"999","TLE_LINE2":"2 52284  53.2186  86.3533 0002414  37.1590 322.9569 15.08837406 33332","TLE_LINE1":"1 52284U 22041Z   22329.63777822  .00001117  00000-0  88272-4 0  9991","MEAN_MOTION":"15.08837406","MEAN_ANOMALY":"322.9569","INCLINATION":"53.2186","NORAD_CAT_ID":"52284","PERIAPSIS":"538.083","ECCENTRICITY":"0.00024140","DECAY_DATE":null,"GP_ID":"218822662"},{"CENTER_NAME":"EARTH","EPOCH":"2022-11-25T18:54:20.986560","OBJECT_TYPE":"PAYLOAD","OBJECT_ID":"2022-041AA","EPHEMERIS_TYPE":"0","SITE":"AFETR","CLASSIFICATION_TYPE":"U","ARG_OF_PERICENTER":"42.2028","REF_FRAME":"TEME","OBJECT_NAME":"STARLINK-3775","MEAN_MOTION_DDOT":"0.0000000000000","PERIOD":"95.438","MEAN_MOTION_DOT":"-0.00000012","LAUNCH_DATE":"2022-04-21","TIME_SYSTEM":"UTC","REV_AT_EPOCH":"3322","RCS_SIZE":"LARGE","PERIAPSIS":"538.121","ECCENTRICITY":"0.00023780","GP_ID":"218820921","DECAY_DATE":null,"MEAN_MOTION":"15.08833230","MEAN_ANOMALY":"317.9147","NORAD_CAT_ID":"52285","INCLINATION":"53.2180","MEAN_ELEMENT_THEORY":"SGP4","FILE":"3670141","BSTAR":"0.00001735000000","RA_OF_ASC_NODE":"95.7044","COUNTRY_CODE":"US","TLE_LINE1":"1 52285U 22041AA  22329.78774290 -.00000012  00000-0  17350-4 0  9997","TLE_LINE2":"2 52285  53.2180  95.7044 0002378  42.2028 317.9147 15.08833230 33225","ELEMENT_SET_NO":"999","APOAPSIS":"541.411","SEMIMAJOR_AXIS":"6917.901"},{"CLASSIFICATION_TYPE":"U","ARG_OF_PERICENTER":"37.2337","OBJECT_ID":"2022-041AB","SITE":"AFETR","EPHEMERIS_TYPE":"0","EPOCH":"2022-11-25T13:32:24.910080","OBJECT_TYPE":"PAYLOAD","CENTER_NAME":"EARTH","RCS_SIZE":"LARGE","REV_AT_EPOCH":"3332","TIME_SYSTEM":"UTC","MEAN_MOTION_DOT":"-0.00000830","LAUNCH_DATE":"2022-04-21","PERIOD":"95.438","OBJECT_NAME":"STARLINK-3802","MEAN_MOTION_DDOT":"0.0000000000000","REF_FRAME":"TEME","NORAD_CAT_ID":"52286","INCLINATION":"53.2184","MEAN_ANOMALY":"322.8780","MEAN_MOTION":"15.08834562","GP_ID":"218821171","DECAY_DATE":null,"ECCENTRICITY":"0.00018060","PERIAPSIS":"538.513","SEMIMAJOR_AXIS":"6917.897","APOAPSIS":"541.011","TLE_LINE1":"1 52286U 22041AB  22329.56417720 -.00000830  00000-0 -34038-4 0  9997","TLE_LINE2":"2 52286  53.2184  86.6808 0001806  37.2337 322.8780 15.08834562 33327","ELEMENT_SET_NO":"999","COUNTRY_CODE":"US","BSTAR":"-0.00003403800000","RA_OF_ASC_NODE":"86.6808","MEAN_ELEMENT_THEORY":"SGP4","FILE":"3670141"}];
